GLOBALSTAR M094 [+]     
1 39074U 13005C   23358.98327869 -.00000081  00000+0  12932-3 0  9994
2 39074  51.9984  26.8798 0000457 137.3025 222.7877 12.62270600504176
GLOBALSTAR M096 [+]     
1 39075U 13005D   23359.39255535 -.00000101  00000+0  12930-4 0  9993
2 39075  52.0085  73.7259 0000875 130.0120 230.0824 12.62267123503476
GLOBALSTAR M078 [+]     
1 39076U 13005E   23358.73255688 -.00000094  00000+0  55031-4 0  9990
2 39076  51.9849 160.9778 0001875  80.0880 280.0198 12.62264882501663
GLOBALSTAR M095 [+]     
1 39077U 13005F   23359.47150044 -.00000102  00000+0  77903-5 0  9996
2 39077  51.9775 156.1917 0001753 101.4554 258.6510 12.62272262501979
GLOBALSTAR M087 [+]     
1 52888U 22064A   23358.65870889 -.00000101  00000+0  52241-4 0  9997
2 52888  51.9765 100.4328 0008696 278.7299  81.2617 13.37560921 74033
